{
 "type": "FeatureCollection",
 "name": "Mulund · LBS-Sonapur (T ward)",
 "features": [
  {
   "type": "Feature",
   "properties": {
    "id": "lbs-mul-1",
    "name": "LBS Marg · Check Naka → Maratha Chowk",
    "bowl": 1.1,
    "drain_id": "MU-D1",
    "subscribers": 110
   },
   "geometry": {
    "type": "LineString",
    "coordinates": [
     [
      72.937755,
      19.16385
     ],
     [
      72.937781,
      19.164233
     ],
     [
      72.937786,
      19.164313
     ],
     [
      72.937801,
      19.164521
     ],
     [
      72.937837,
      19.164703
     ],
     [
      72.937843,
      19.164734
     ],
     [
      72.937956,
      19.165043
     ],
     [
      72.938008,
      19.165149
     ],
     [
      72.938099,
      19.165333
     ],
     [
      72.938181,
      19.165501
     ],
     [
      72.938224,
      19.165604
     ],
     [
      72.9391,
      19.167735
     ],
     [
      72.939151,
      19.167857
     ],
     [
      72.93917,
      19.167903
     ],
     [
      72.939325,
      19.168267
     ],
     [
      72.939341,
      19.168301
     ],
     [
      72.939529,
      19.168744
     ],
     [
      72.939662,
      19.169051
     ],
     [
      72.939757,
      19.169262
     ],
     [
      72.940111,
      19.170131
     ],
     [
      72.940777,
      19.171698
     ]
    ]
   }
  },
  {
   "type": "Feature",
   "properties": {
    "id": "lbs-mul-2",
    "name": "LBS Marg · Maratha Chowk → Sonapur",
    "bowl": 1.2,
    "drain_id": "MU-D2",
    "subscribers": 120
   },
   "geometry": {
    "type": "LineString",
    "coordinates": [
     [
      72.940777,
      19.171698
     ],
     [
      72.940831,
      19.171825
     ],
     [
      72.94088,
      19.171939
     ],
     [
      72.940911,
      19.172013
     ],
     [
      72.940967,
      19.172184
     ],
     [
      72.941044,
      19.172418
     ],
     [
      72.941137,
      19.172704
     ],
     [
      72.941208,
      19.172919
     ],
     [
      72.941292,
      19.173176
     ],
     [
      72.941446,
      19.173775
     ],
     [
      72.941564,
      19.174042
     ],
     [
      72.941679,
      19.174249
     ],
     [
      72.941939,
      19.174702
     ],
     [
      72.94261,
      19.175708
     ],
     [
      72.94265,
      19.17577
     ],
     [
      72.942733,
      19.175899
     ],
     [
      72.942778,
      19.17597
     ],
     [
      72.943181,
      19.176596
     ],
     [
      72.943565,
      19.177127
     ],
     [
      72.943901,
      19.177488
     ],
     [
      72.943979,
      19.177573
     ],
     [
      72.944144,
      19.17775
     ],
     [
      72.944194,
      19.177795
     ],
     [
      72.944298,
      19.177889
     ],
     [
      72.944678,
      19.178194
     ],
     [
      72.944716,
      19.178226
     ],
     [
      72.944898,
      19.178381
     ],
     [
      72.944957,
      19.178443
     ],
     [
      72.945109,
      19.178603
     ],
     [
      72.945163,
      19.178666
     ],
     [
      72.945181,
      19.178685
     ]
    ]
   }
  },
  {
   "type": "Feature",
   "properties": {
    "id": "mg-rd",
    "name": "M.G. Road · Stn (W) link",
    "bowl": 1.3,
    "drain_id": "MU-D3",
    "subscribers": 140
   },
   "geometry": {
    "type": "LineString",
    "coordinates": [
     [
      72.95614,
      19.172452
     ],
     [
      72.955633,
      19.172908
     ],
     [
      72.955437,
      19.173085
     ],
     [
      72.955194,
      19.173303
     ],
     [
      72.954931,
      19.173553
     ],
     [
      72.954604,
      19.173847
     ],
     [
      72.954365,
      19.174062
     ]
    ]
   }
  },
  {
   "type": "Feature",
   "properties": {
    "id": "devidayal",
    "name": "Devidayal Rd",
    "bowl": 1.0,
    "drain_id": "MU-D5",
    "subscribers": 70
   },
   "geometry": {
    "type": "LineString",
    "coordinates": [
     [
      72.9554,
      19.1712
     ],
     [
      72.9563,
      19.171833
     ],
     [
      72.9572,
      19.172467
     ],
     [
      72.9581,
      19.1731
     ]
    ]
   }
  },
  {
   "type": "Feature",
   "properties": {
    "id": "goshala",
    "name": "Goshala Rd",
    "bowl": 0.9,
    "drain_id": "MU-D5",
    "subscribers": 65
   },
   "geometry": {
    "type": "LineString",
    "coordinates": [
     [
      72.956161,
      19.165959
     ],
     [
      72.955671,
      19.166049
     ],
     [
      72.955653,
      19.166059
     ],
     [
      72.955604,
      19.166095
     ],
     [
      72.955595,
      19.166263
     ],
     [
      72.955729,
      19.166354
     ],
     [
      72.955793,
      19.166397
     ],
     [
      72.95611,
      19.166612
     ],
     [
      72.956244,
      19.166699
     ],
     [
      72.957331,
      19.167208
     ],
     [
      72.957449,
      19.166912
     ],
     [
      72.957545,
      19.166672
     ],
     [
      72.957585,
      19.166572
     ],
     [
      72.957709,
      19.166262
     ],
     [
      72.957866,
      19.165856
     ],
     [
      72.957917,
      19.165762
     ],
     [
      72.957922,
      19.165752
     ],
     [
      72.957983,
      19.165632
     ],
     [
      72.958368,
      19.164733
     ],
     [
      72.958415,
      19.164646
     ],
     [
      72.959503,
      19.165364
     ],
     [
      72.959644,
      19.165478
     ],
     [
      72.95973,
      19.165425
     ],
     [
      72.960074,
      19.16515
     ],
     [
      72.960081,
      19.165129
     ],
     [
      72.95999,
      19.164958
     ]
    ]
   }
  },
  {
   "type": "Feature",
   "properties": {
    "id": "sonapur",
    "name": "Sonapur signal pocket",
    "bowl": 1.4,
    "drain_id": "MU-D4",
    "subscribers": 150
   },
   "geometry": {
    "type": "LineString",
    "coordinates": [
     [
      72.955142,
      19.170813
     ],
     [
      72.954678,
      19.171227
     ],
     [
      72.953934,
      19.170496
     ],
     [
      72.953268,
      19.169836
     ],
     [
      72.952742,
      19.169298
     ]
    ]
   }
  }
 ]
}