{
 "type": "FeatureCollection",
 "name": "King's Circle · Gandhi Mkt–Sion (F/N)",
 "features": [
  {
   "type": "Feature",
   "properties": {
    "id": "amb-kc-01",
    "name": "Dr Ambedkar Rd · Ruia → King's Circle",
    "bowl": 1.3,
    "drain_id": "KC-D1",
    "subscribers": 140
   },
   "geometry": {
    "type": "LineString",
    "coordinates": [
     [
      72.850623,
      19.021804
     ],
     [
      72.850717,
      19.021937
     ],
     [
      72.850841,
      19.022105
     ],
     [
      72.850885,
      19.022165
     ],
     [
      72.851096,
      19.022446
     ],
     [
      72.851404,
      19.022854
     ],
     [
      72.851603,
      19.023074
     ],
     [
      72.851928,
      19.023485
     ],
     [
      72.852137,
      19.023729
     ],
     [
      72.852472,
      19.02412
     ],
     [
      72.852717,
      19.024379
     ],
     [
      72.853574,
      19.025266
     ],
     [
      72.853988,
      19.025691
     ],
     [
      72.854112,
      19.025813
     ],
     [
      72.8542,
      19.025899
     ],
     [
      72.854413,
      19.026111
     ],
     [
      72.854686,
      19.026398
     ],
     [
      72.854729,
      19.026464
     ],
     [
      72.85483,
      19.026675
     ]
    ]
   }
  },
  {
   "type": "Feature",
   "properties": {
    "id": "amb-kc-02",
    "name": "Dr Ambedkar Rd · King's Circle → Sion",
    "bowl": 1.1,
    "drain_id": "KC-D2",
    "subscribers": 120
   },
   "geometry": {
    "type": "LineString",
    "coordinates": [
     [
      72.855245,
      19.027423
     ],
     [
      72.855401,
      19.027442
     ],
     [
      72.855557,
      19.027422
     ],
     [
      72.855687,
      19.027429
     ],
     [
      72.855818,
      19.02753
     ],
     [
      72.855905,
      19.027624
     ],
     [
      72.856265,
      19.028013
     ],
     [
      72.856423,
      19.028184
     ],
     [
      72.856755,
      19.028539
     ],
     [
      72.857146,
      19.029122
     ],
     [
      72.857236,
      19.029275
     ],
     [
      72.857517,
      19.029164
     ],
     [
      72.857613,
      19.029381
     ],
     [
      72.857923,
      19.030074
     ],
     [
      72.857932,
      19.029985
     ],
     [
      72.85872,
      19.030633
     ],
     [
      72.858944,
      19.030819
     ],
     [
      72.85903,
      19.030891
     ],
     [
      72.859937,
      19.031643
     ],
     [
      72.860022,
      19.03174
     ],
     [
      72.860462,
      19.032243
     ],
     [
      72.861209,
      19.032978
     ],
     [
      72.861456,
      19.033233
     ],
     [
      72.862048,
      19.033842
     ]
    ]
   }
  },
  {
   "type": "Feature",
   "properties": {
    "id": "bhaudaji-01",
    "name": "Bhau Daji Rd · Gandhi Market",
    "bowl": 1.5,
    "drain_id": "KC-D3",
    "subscribers": 180
   },
   "geometry": {
    "type": "LineString",
    "coordinates": [
     [
      72.855245,
      19.027423
     ],
     [
      72.855174,
      19.027807
     ],
     [
      72.854903,
      19.029264
     ],
     [
      72.854802,
      19.029802
     ],
     [
      72.85476,
      19.03003
     ],
     [
      72.854701,
      19.030344
     ],
     [
      72.854608,
      19.030844
     ]
    ]
   }
  },
  {
   "type": "Feature",
   "properties": {
    "id": "vincent-01",
    "name": "Dr B.A. Rd service · Matunga (E)",
    "bowl": 1.0,
    "drain_id": "KC-D4",
    "subscribers": 75
   },
   "geometry": {
    "type": "LineString",
    "coordinates": [
     [
      72.855245,
      19.027423
     ],
     [
      72.855401,
      19.027442
     ],
     [
      72.855557,
      19.027422
     ],
     [
      72.855687,
      19.027429
     ],
     [
      72.855818,
      19.02753
     ],
     [
      72.855905,
      19.027624
     ],
     [
      72.856265,
      19.028013
     ],
     [
      72.856423,
      19.028184
     ],
     [
      72.856755,
      19.028539
     ],
     [
      72.857146,
      19.029122
     ],
     [
      72.857236,
      19.029275
     ],
     [
      72.857517,
      19.029164
     ],
     [
      72.857613,
      19.029381
     ],
     [
      72.857923,
      19.030074
     ],
     [
      72.857932,
      19.029985
     ],
     [
      72.857936,
      19.029648
     ],
     [
      72.857956,
      19.029511
     ],
     [
      72.858002,
      19.029338
     ],
     [
      72.858079,
      19.029168
     ]
    ]
   }
  },
  {
   "type": "Feature",
   "properties": {
    "id": "sion-circ",
    "name": "Sion Circle approach",
    "bowl": 1.2,
    "drain_id": "KC-D5",
    "subscribers": 100
   },
   "geometry": {
    "type": "LineString",
    "coordinates": [
     [
      72.862048,
      19.033842
     ],
     [
      72.862652,
      19.034463
     ],
     [
      72.862706,
      19.034531
     ],
     [
      72.864374,
      19.036502
     ],
     [
      72.864462,
      19.036606
     ],
     [
      72.865002,
      19.037246
     ],
     [
      72.865169,
      19.037447
     ],
     [
      72.864322,
      19.037459
     ],
     [
      72.86426,
      19.037496
     ],
     [
      72.864183,
      19.037497
     ],
     [
      72.863686,
      19.037506
     ],
     [
      72.863203,
      19.03756
     ],
     [
      72.863138,
      19.037567
     ],
     [
      72.862872,
      19.037614
     ],
     [
      72.86272,
      19.03764
     ],
     [
      72.862014,
      19.037746
     ],
     [
      72.86196,
      19.037714
     ],
     [
      72.861912,
      19.037714
     ],
     [
      72.861928,
      19.038445
     ],
     [
      72.861938,
      19.038746
     ],
     [
      72.86194,
      19.038783
     ],
     [
      72.861561,
      19.038829
     ],
     [
      72.861576,
      19.038863
     ],
     [
      72.861741,
      19.039225
     ]
    ]
   }
  },
  {
   "type": "Feature",
   "properties": {
    "id": "tulpule",
    "name": "Matunga Stn (E) approach",
    "bowl": 0.9,
    "drain_id": "KC-D4",
    "subscribers": 90
   },
   "geometry": {
    "type": "LineString",
    "coordinates": [
     [
      72.858079,
      19.029168
     ],
     [
      72.858002,
      19.029338
     ],
     [
      72.857956,
      19.029511
     ],
     [
      72.857936,
      19.029648
     ],
     [
      72.858199,
      19.02993
     ],
     [
      72.858929,
      19.030588
     ],
     [
      72.859138,
      19.030771
     ],
     [
      72.859322,
      19.030928
     ],
     [
      72.859564,
      19.031157
     ],
     [
      72.859998,
      19.031561
     ]
    ]
   }
  },
  {
   "type": "Feature",
   "properties": {
    "id": "kingsway",
    "name": "Vincent Rd · King's Circle west arm",
    "bowl": 0.8,
    "drain_id": "KC-D1",
    "subscribers": 65
   },
   "geometry": {
    "type": "LineString",
    "coordinates": [
     [
      72.855245,
      19.027423
     ],
     [
      72.855097,
      19.027365
     ],
     [
      72.855024,
      19.027319
     ],
     [
      72.854893,
      19.027183
     ],
     [
      72.854836,
      19.027081
     ],
     [
      72.854823,
      19.027046
     ],
     [
      72.854722,
      19.027079
     ],
     [
      72.854169,
      19.027261
     ],
     [
      72.854038,
      19.026909
     ],
     [
      72.853884,
      19.026764
     ],
     [
      72.85369,
      19.026582
     ],
     [
      72.853411,
      19.026316
     ],
     [
      72.853344,
      19.026251
     ],
     [
      72.853132,
      19.026046
     ],
     [
      72.852916,
      19.025838
     ],
     [
      72.852717,
      19.025646
     ],
     [
      72.852487,
      19.025424
     ],
     [
      72.852022,
      19.024975
     ]
    ]
   }
  },
  {
   "type": "Feature",
   "properties": {
    "id": "everard",
    "name": "Sion (W) · Everard Nagar link",
    "bowl": 0.9,
    "drain_id": "KC-D5",
    "subscribers": 50
   },
   "geometry": {
    "type": "LineString",
    "coordinates": [
     [
      72.861741,
      19.039225
     ],
     [
      72.86197,
      19.039632
     ],
     [
      72.862206,
      19.040052
     ],
     [
      72.862223,
      19.040082
     ],
     [
      72.862438,
      19.040289
     ],
     [
      72.862694,
      19.040648
     ],
     [
      72.863079,
      19.040402
     ],
     [
      72.863469,
      19.040152
     ],
     [
      72.864126,
      19.041093
     ],
     [
      72.864262,
      19.040962
     ],
     [
      72.86444,
      19.041201
     ]
    ]
   }
  }
 ]
}