{
 "type": "FeatureCollection",
 "name": "Mira Road · Station belt (MBMC)",
 "features": [
  {
   "type": "Feature",
   "properties": {
    "id": "mb-01",
    "name": "Mira-Bhayandar Rd · Shanti Ngr → Stn Jn",
    "bowl": 1.2,
    "drain_id": "MR-D1",
    "subscribers": 130
   },
   "geometry": {
    "type": "LineString",
    "coordinates": [
     [
      72.866042,
      19.287856
     ],
     [
      72.865664,
      19.288156
     ],
     [
      72.865352,
      19.288404
     ],
     [
      72.864706,
      19.289044
     ],
     [
      72.864695,
      19.289098
     ],
     [
      72.864573,
      19.2892
     ],
     [
      72.864519,
      19.289253
     ],
     [
      72.864009,
      19.289793
     ]
    ]
   }
  },
  {
   "type": "Feature",
   "properties": {
    "id": "mb-02",
    "name": "Mira-Bhayandar Rd · Stn Jn → Golden Ngr",
    "bowl": 1.0,
    "drain_id": "MR-D2",
    "subscribers": 95
   },
   "geometry": {
    "type": "LineString",
    "coordinates": [
     [
      72.864009,
      19.289793
     ],
     [
      72.863864,
      19.289948
     ],
     [
      72.863351,
      19.290447
     ],
     [
      72.863199,
      19.290608
     ],
     [
      72.863062,
      19.290753
     ],
     [
      72.863006,
      19.290813
     ],
     [
      72.862998,
      19.290821
     ],
     [
      72.862806,
      19.291031
     ],
     [
      72.862755,
      19.291085
     ],
     [
      72.862465,
      19.291401
     ],
     [
      72.862407,
      19.291455
     ],
     [
      72.861918,
      19.291915
     ],
     [
      72.861506,
      19.292301
     ],
     [
      72.861164,
      19.292657
     ],
     [
      72.860457,
      19.293352
     ],
     [
      72.860063,
      19.293739
     ]
    ]
   }
  },
  {
   "type": "Feature",
   "properties": {
    "id": "mr-stn",
    "name": "Mira Rd Stn approach (W)",
    "bowl": 1.5,
    "drain_id": "MR-D3",
    "subscribers": 160
   },
   "geometry": {
    "type": "LineString",
    "coordinates": [
     [
      72.855969,
      19.28311
     ],
     [
      72.85617,
      19.283135
     ],
     [
      72.856065,
      19.283831
     ],
     [
      72.85662,
      19.283965
     ],
     [
      72.856865,
      19.284021
     ],
     [
      72.856989,
      19.284052
     ],
     [
      72.857599,
      19.284176
     ],
     [
      72.857397,
      19.284909
     ],
     [
      72.857418,
      19.284908
     ],
     [
      72.857439,
      19.284913
     ],
     [
      72.85746,
      19.284926
     ],
     [
      72.857471,
      19.28494
     ],
     [
      72.857479,
      19.28496
     ],
     [
      72.85748,
      19.28498
     ],
     [
      72.857474,
      19.285
     ],
     [
      72.857462,
      19.285017
     ],
     [
      72.857789,
      19.285242
     ],
     [
      72.857912,
      19.285275
     ],
     [
      72.85793,
      19.285286
     ],
     [
      72.858432,
      19.285686
     ],
     [
      72.85857,
      19.285542
     ],
     [
      72.858737,
      19.285368
     ],
     [
      72.858746,
      19.285319
     ],
     [
      72.858575,
      19.285153
     ],
     [
      72.858713,
      19.28505
     ],
     [
      72.858723,
      19.285028
     ],
     [
      72.858601,
      19.284844
     ],
     [
      72.858573,
      19.284827
     ]
    ]
   }
  },
  {
   "type": "Feature",
   "properties": {
    "id": "shanti",
    "name": "Shanti Nagar sector road",
    "bowl": 1.3,
    "drain_id": "MR-D4",
    "subscribers": 85
   },
   "geometry": {
    "type": "LineString",
    "coordinates": [
     [
      72.858968,
      19.278475
     ],
     [
      72.858946,
      19.278453
     ],
     [
      72.85894,
      19.278431
     ],
     [
      72.858946,
      19.278404
     ],
     [
      72.859658,
      19.277193
     ],
     [
      72.859863,
      19.276889
     ],
     [
      72.859965,
      19.276767
     ],
     [
      72.860014,
      19.276708
     ],
     [
      72.860249,
      19.276481
     ],
     [
      72.861097,
      19.277222
     ],
     [
      72.86116,
      19.277143
     ],
     [
      72.861367,
      19.276945
     ],
     [
      72.861523,
      19.277069
     ],
     [
      72.861679,
      19.277187
     ],
     [
      72.861761,
      19.277262
     ],
     [
      72.862488,
      19.276464
     ],
     [
      72.862635,
      19.2766
     ],
     [
      72.862694,
      19.276693
     ],
     [
      72.862073,
      19.277339
     ]
    ]
   }
  },
  {
   "type": "Feature",
   "properties": {
    "id": "ramdev",
    "name": "Ramdev Park lane",
    "bowl": 1.1,
    "drain_id": "MR-D5",
    "subscribers": 60
   },
   "geometry": {
    "type": "LineString",
    "coordinates": [
     [
      72.8532,
      19.2872
     ],
     [
      72.854167,
      19.287833
     ],
     [
      72.855133,
      19.288467
     ],
     [
      72.8561,
      19.2891
     ]
    ]
   }
  },
  {
   "type": "Feature",
   "properties": {
    "id": "kanakia",
    "name": "Kanakia stretch",
    "bowl": 0.9,
    "drain_id": "MR-D5",
    "subscribers": 55
   },
   "geometry": {
    "type": "LineString",
    "coordinates": [
     [
      72.858573,
      19.284827
     ],
     [
      72.858601,
      19.284844
     ],
     [
      72.858723,
      19.285028
     ],
     [
      72.858713,
      19.28505
     ],
     [
      72.858575,
      19.285153
     ],
     [
      72.858746,
      19.285319
     ],
     [
      72.858737,
      19.285368
     ],
     [
      72.859434,
      19.285922
     ],
     [
      72.859526,
      19.286032
     ],
     [
      72.85954,
      19.2861
     ],
     [
      72.859508,
      19.286163
     ],
     [
      72.859425,
      19.286228
     ],
     [
      72.859282,
      19.286373
     ],
     [
      72.859481,
      19.286573
     ],
     [
      72.859503,
      19.286595
     ],
     [
      72.859588,
      19.286678
     ],
     [
      72.859895,
      19.286823
     ],
     [
      72.860038,
      19.286926
     ],
     [
      72.860101,
      19.286971
     ],
     [
      72.860153,
      19.286999
     ],
     [
      72.860149,
      19.287014
     ],
     [
      72.860151,
      19.28703
     ],
     [
      72.860159,
      19.287045
     ],
     [
      72.860171,
      19.287056
     ],
     [
      72.860186,
      19.287062
     ],
     [
      72.860202,
      19.287064
     ],
     [
      72.860217,
      19.28706
     ],
     [
      72.86023,
      19.287053
     ],
     [
      72.860384,
      19.287156
     ],
     [
      72.860653,
      19.287287
     ],
     [
      72.860981,
      19.287417
     ],
     [
      72.861059,
      19.287465
     ],
     [
      72.8611,
      19.287525
     ],
     [
      72.861096,
      19.287569
     ],
     [
      72.862136,
      19.288317
     ]
    ]
   }
  }
 ]
}