{
 "type": "FeatureCollection",
 "name": "Borivali-Dahisar · S.V. Rd belt (R/C)",
 "features": [
  {
   "type": "Feature",
   "properties": {
    "id": "sv-bor-1",
    "name": "S.V. Road · Borivali Stn → Chandavarkar",
    "bowl": 1.2,
    "drain_id": "BO-D1",
    "subscribers": 140
   },
   "geometry": {
    "type": "LineString",
    "coordinates": [
     [
      72.856177,
      19.229003
     ],
     [
      72.856436,
      19.229668
     ],
     [
      72.856462,
      19.229751
     ],
     [
      72.85636,
      19.229785
     ],
     [
      72.856538,
      19.230252
     ],
     [
      72.856606,
      19.230569
     ],
     [
      72.8566,
      19.230654
     ],
     [
      72.856625,
      19.230711
     ],
     [
      72.856647,
      19.230755
     ],
     [
      72.856763,
      19.231213
     ],
     [
      72.856591,
      19.231324
     ],
     [
      72.856495,
      19.23143
     ],
     [
      72.855596,
      19.232914
     ],
     [
      72.855579,
      19.232938
     ],
     [
      72.855509,
      19.23303
     ],
     [
      72.85533,
      19.23283
     ],
     [
      72.855265,
      19.232734
     ],
     [
      72.855216,
      19.232647
     ],
     [
      72.855207,
      19.232417
     ]
    ]
   }
  },
  {
   "type": "Feature",
   "properties": {
    "id": "sv-bor-2",
    "name": "S.V. Road · Chandavarkar → Dahisar bdry",
    "bowl": 1.0,
    "drain_id": "BO-D2",
    "subscribers": 100
   },
   "geometry": {
    "type": "LineString",
    "coordinates": [
     [
      72.855207,
      19.232417
     ],
     [
      72.855216,
      19.232647
     ],
     [
      72.855265,
      19.232734
     ],
     [
      72.85533,
      19.23283
     ],
     [
      72.855509,
      19.23303
     ],
     [
      72.855429,
      19.233136
     ],
     [
      72.855274,
      19.233318
     ],
     [
      72.855059,
      19.233575
     ],
     [
      72.855104,
      19.233597
     ],
     [
      72.855139,
      19.233633
     ],
     [
      72.855159,
      19.233678
     ],
     [
      72.855162,
      19.233697
     ],
     [
      72.855162,
      19.233716
     ],
     [
      72.85516,
      19.233736
     ],
     [
      72.855144,
      19.233775
     ],
     [
      72.855118,
      19.233809
     ],
     [
      72.855081,
      19.233834
     ],
     [
      72.855039,
      19.233847
     ],
     [
      72.855064,
      19.233945
     ],
     [
      72.855113,
      19.234191
     ],
     [
      72.855163,
      19.234522
     ],
     [
      72.855236,
      19.234964
     ],
     [
      72.855252,
      19.235059
     ],
     [
      72.855182,
      19.235085
     ],
     [
      72.855193,
      19.235247
     ],
     [
      72.855194,
      19.235462
     ],
     [
      72.855174,
      19.235827
     ],
     [
      72.855148,
      19.236131
     ],
     [
      72.855012,
      19.236955
     ],
     [
      72.854972,
      19.237184
     ],
     [
      72.854929,
      19.237381
     ],
     [
      72.854886,
      19.237564
     ],
     [
      72.854884,
      19.237599
     ],
     [
      72.854848,
      19.23777
     ],
     [
      72.854833,
      19.237865
     ],
     [
      72.854555,
      19.237823
     ],
     [
      72.854258,
      19.23783
     ],
     [
      72.854011,
      19.237841
     ]
    ]
   }
  },
  {
   "type": "Feature",
   "properties": {
    "id": "chanda",
    "name": "Chandavarkar Rd",
    "bowl": 1.1,
    "drain_id": "BO-D3",
    "subscribers": 90
   },
   "geometry": {
    "type": "LineString",
    "coordinates": [
     [
      72.8556,
      19.2321
     ],
     [
      72.856767,
      19.231767
     ],
     [
      72.857933,
      19.231433
     ],
     [
      72.8591,
      19.2311
     ]
    ]
   }
  },
  {
   "type": "Feature",
   "properties": {
    "id": "lt-rd",
    "name": "L.T. Road · Stn (W)",
    "bowl": 1.3,
    "drain_id": "BO-D4",
    "subscribers": 120
   },
   "geometry": {
    "type": "LineString",
    "coordinates": [
     [
      72.856045,
      19.229006
     ],
     [
      72.855958,
      19.228767
     ],
     [
      72.85591,
      19.228637
     ],
     [
      72.85589,
      19.228578
     ],
     [
      72.855245,
      19.228595
     ],
     [
      72.85469,
      19.228623
     ],
     [
      72.854135,
      19.228681
     ],
     [
      72.853699,
      19.228671
     ],
     [
      72.853584,
      19.228671
     ],
     [
      72.853504,
      19.228672
     ],
     [
      72.85345,
      19.228672
     ],
     [
      72.853113,
      19.228672
     ],
     [
      72.852735,
      19.228676
     ],
     [
      72.852072,
      19.228674
     ]
    ]
   }
  },
  {
   "type": "Feature",
   "properties": {
    "id": "dahisar-sub",
    "name": "Dahisar subway approach",
    "bowl": 1.5,
    "drain_id": "BO-D5",
    "subscribers": 110
   },
   "geometry": {
    "type": "LineString",
    "coordinates": [
     [
      72.854011,
      19.237841
     ],
     [
      72.854258,
      19.23783
     ],
     [
      72.854555,
      19.237823
     ],
     [
      72.854675,
      19.237866
     ],
     [
      72.854727,
      19.237899
     ],
     [
      72.854807,
      19.238003
     ],
     [
      72.854795,
      19.238122
     ],
     [
      72.854764,
      19.238381
     ],
     [
      72.854728,
      19.23862
     ],
     [
      72.854702,
      19.238859
     ],
     [
      72.85462,
      19.239534
     ],
     [
      72.854584,
      19.239773
     ],
     [
      72.854555,
      19.240016
     ],
     [
      72.854527,
      19.240297
     ],
     [
      72.854517,
      19.240389
     ],
     [
      72.85449,
      19.240691
     ],
     [
      72.854479,
      19.240859
     ],
     [
      72.85446,
      19.241125
     ],
     [
      72.854438,
      19.241372
     ],
     [
      72.854415,
      19.241492
     ],
     [
      72.854495,
      19.241525
     ],
     [
      72.854698,
      19.241544
     ],
     [
      72.854913,
      19.241539
     ],
     [
      72.855029,
      19.241525
     ],
     [
      72.855189,
      19.241525
     ],
     [
      72.855421,
      19.241467
     ],
     [
      72.855865,
      19.241339
     ],
     [
      72.855953,
      19.241333
     ],
     [
      72.856353,
      19.241305
     ],
     [
      72.856466,
      19.241295
     ],
     [
      72.856352,
      19.241062
     ],
     [
      72.856352,
      19.240666
     ],
     [
      72.85631,
      19.239925
     ]
    ]
   }
  },
  {
   "type": "Feature",
   "properties": {
    "id": "factory",
    "name": "Factory Lane",
    "bowl": 0.9,
    "drain_id": "BO-D3",
    "subscribers": 55
   },
   "geometry": {
    "type": "LineString",
    "coordinates": [
     [
      72.859035,
      19.231084
     ],
     [
      72.859009,
      19.2311
     ],
     [
      72.85898,
      19.231099
     ],
     [
      72.858756,
      19.231076
     ],
     [
      72.858674,
      19.231067
     ],
     [
      72.858657,
      19.231254
     ],
     [
      72.859004,
      19.231327
     ],
     [
      72.858987,
      19.231386
     ],
     [
      72.859562,
      19.231478
     ],
     [
      72.859853,
      19.231523
     ],
     [
      72.860156,
      19.231541
     ],
     [
      72.860735,
      19.231506
     ],
     [
      72.860668,
      19.23232
     ],
     [
      72.860629,
      19.232754
     ]
    ]
   }
  }
 ]
}