{
 "type": "FeatureCollection",
 "name": "Kurla · Stn-LBS-CST Rd (L ward)",
 "features": [
  {
   "type": "Feature",
   "properties": {
    "id": "lbs-kur-1",
    "name": "LBS Marg · Kurla Stn → Kamani",
    "bowl": 1.4,
    "drain_id": "KU-D2",
    "subscribers": 160
   },
   "geometry": {
    "type": "LineString",
    "coordinates": [
     [
      72.874772,
      19.06603
     ],
     [
      72.874928,
      19.066994
     ],
     [
      72.874942,
      19.067086
     ],
     [
      72.874962,
      19.067221
     ],
     [
      72.875018,
      19.067593
     ],
     [
      72.875047,
      19.067791
     ],
     [
      72.87507,
      19.067943
     ],
     [
      72.875087,
      19.068056
     ],
     [
      72.875098,
      19.068163
     ],
     [
      72.87512,
      19.068337
     ],
     [
      72.875123,
      19.068379
     ],
     [
      72.875219,
      19.069151
     ],
     [
      72.875255,
      19.069348
     ],
     [
      72.875276,
      19.069461
     ],
     [
      72.875291,
      19.069543
     ],
     [
      72.875387,
      19.070063
     ],
     [
      72.875438,
      19.070415
     ],
     [
      72.87545,
      19.070495
     ],
     [
      72.875466,
      19.070606
     ],
     [
      72.875483,
      19.070718
     ],
     [
      72.875496,
      19.070818
     ]
    ]
   }
  },
  {
   "type": "Feature",
   "properties": {
    "id": "lbs-kur-2",
    "name": "LBS Marg · Kamani → Kalina Jn",
    "bowl": 1.2,
    "drain_id": "KU-D3",
    "subscribers": 110
   },
   "geometry": {
    "type": "LineString",
    "coordinates": [
     [
      72.882488,
      19.06981
     ],
     [
      72.882651,
      19.070073
     ],
     [
      72.88283,
      19.070314
     ],
     [
      72.883012,
      19.070495
     ],
     [
      72.883463,
      19.070944
     ],
     [
      72.88368,
      19.071181
     ],
     [
      72.883682,
      19.071935
     ],
     [
      72.883683,
      19.072001
     ],
     [
      72.883684,
      19.072367
     ],
     [
      72.883738,
      19.072588
     ],
     [
      72.883796,
      19.072641
     ],
     [
      72.883905,
      19.07267
     ],
     [
      72.884158,
      19.072897
     ],
     [
      72.884304,
      19.072757
     ],
     [
      72.884448,
      19.072631
     ],
     [
      72.884579,
      19.072751
     ],
     [
      72.88489,
      19.073094
     ]
    ]
   }
  },
  {
   "type": "Feature",
   "properties": {
    "id": "cst-rd",
    "name": "CST Rd · Kalina link (Mithi edge)",
    "bowl": 1.5,
    "drain_id": "KU-D4",
    "subscribers": 130
   },
   "geometry": {
    "type": "LineString",
    "coordinates": [
     [
      72.87918,
      19.070053
     ],
     [
      72.879163,
      19.070008
     ],
     [
      72.878851,
      19.070129
     ],
     [
      72.878541,
      19.070154
     ],
     [
      72.878047,
      19.070137
     ],
     [
      72.877999,
      19.07006
     ],
     [
      72.877998,
      19.06994
     ],
     [
      72.877793,
      19.069881
     ],
     [
      72.87771,
      19.070416
     ],
     [
      72.877252,
      19.070447
     ],
     [
      72.876845,
      19.07049
     ],
     [
      72.876451,
      19.070556
     ],
     [
      72.875483,
      19.070718
     ],
     [
      72.875355,
      19.070757
     ],
     [
      72.875365,
      19.070829
     ],
     [
      72.875394,
      19.071039
     ],
     [
      72.875411,
      19.071159
     ],
     [
      72.875426,
      19.071267
     ],
     [
      72.875456,
      19.071485
     ],
     [
      72.875072,
      19.071418
     ],
     [
      72.874902,
      19.071388
     ],
     [
      72.87464,
      19.071408
     ],
     [
      72.873965,
      19.07144
     ],
     [
      72.874094,
      19.071865
     ],
     [
      72.874088,
      19.071901
     ],
     [
      72.874082,
      19.072079
     ]
    ]
   }
  },
  {
   "type": "Feature",
   "properties": {
    "id": "stn-w",
    "name": "Kurla Stn (W) market lane",
    "bowl": 1.6,
    "drain_id": "KU-D1",
    "subscribers": 180
   },
   "geometry": {
    "type": "LineString",
    "coordinates": [
     [
      72.879199,
      19.065792
     ],
     [
      72.879152,
      19.065798
     ],
     [
      72.879043,
      19.06586
     ],
     [
      72.878717,
      19.066119
     ],
     [
      72.877716,
      19.066824
     ],
     [
      72.877674,
      19.06673
     ],
     [
      72.877491,
      19.066319
     ],
     [
      72.877348,
      19.066063
     ],
     [
      72.87698,
      19.0654
     ],
     [
      72.876883,
      19.065226
     ],
     [
      72.877089,
      19.065161
     ],
     [
      72.877167,
      19.065104
     ],
     [
      72.877193,
      19.064927
     ],
     [
      72.877211,
      19.064738
     ],
     [
      72.877184,
      19.064194
     ]
    ]
   }
  },
  {
   "type": "Feature",
   "properties": {
    "id": "halav",
    "name": "Halav Pul lane",
    "bowl": 1.1,
    "drain_id": "KU-D5",
    "subscribers": 75
   },
   "geometry": {
    "type": "LineString",
    "coordinates": [
     [
      72.8771,
      19.0641
     ],
     [
      72.877767,
      19.063433
     ],
     [
      72.878433,
      19.062767
     ],
     [
      72.8791,
      19.0621
     ]
    ]
   }
  },
  {
   "type": "Feature",
   "properties": {
    "id": "kajupada",
    "name": "Kajupada slope",
    "bowl": 0.8,
    "drain_id": "KU-D5",
    "subscribers": 50
   },
   "geometry": {
    "type": "LineString",
    "coordinates": [
     [
      72.88489,
      19.073094
     ],
     [
      72.885306,
      19.073514
     ],
     [
      72.88377,
      19.073904
     ],
     [
      72.883796,
      19.074159
     ],
     [
      72.883799,
      19.074191
     ],
     [
      72.883813,
      19.074314
     ],
     [
      72.883822,
      19.074393
     ],
     [
      72.88384,
      19.074593
     ],
     [
      72.883644,
      19.074554
     ],
     [
      72.883577,
      19.074754
     ]
    ]
   }
  }
 ]
}