{
 "type": "FeatureCollection",
 "name": "Milan Subway · Andheri–Santacruz (K/E)",
 "features": [
  {
   "type": "Feature",
   "properties": {
    "id": "svr-01",
    "name": "S.V. Road · Khira Nagar → Milan Jct",
    "bowl": 1.0,
    "drain_id": "MS-D1",
    "subscribers": 110
   },
   "geometry": {
    "type": "LineString",
    "coordinates": [
     [
      72.839413,
      19.074006
     ],
     [
      72.839465,
      19.074978
     ],
     [
      72.83947,
      19.075037
     ],
     [
      72.839482,
      19.075164
     ],
     [
      72.839473,
      19.075585
     ],
     [
      72.839464,
      19.076118
     ],
     [
      72.839447,
      19.076453
     ],
     [
      72.839457,
      19.076679
     ],
     [
      72.839519,
      19.076849
     ],
     [
      72.839634,
      19.077156
     ],
     [
      72.839737,
      19.077431
     ],
     [
      72.839931,
      19.077845
     ],
     [
      72.840068,
      19.078136
     ],
     [
      72.840143,
      19.078317
     ],
     [
      72.840156,
      19.078347
     ],
     [
      72.840236,
      19.078589
     ],
     [
      72.840256,
      19.078657
     ],
     [
      72.840305,
      19.078968
     ],
     [
      72.840459,
      19.07947
     ],
     [
      72.840534,
      19.080044
     ],
     [
      72.840906,
      19.080014
     ],
     [
      72.840904,
      19.079811
     ],
     [
      72.840904,
      19.079775
     ],
     [
      72.840904,
      19.079727
     ],
     [
      72.84087,
      19.079414
     ]
    ]
   }
  },
  {
   "type": "Feature",
   "properties": {
    "id": "svr-02",
    "name": "S.V. Road · Milan Jct → Santacruz Stn",
    "bowl": 1.2,
    "drain_id": "MS-D2",
    "subscribers": 150
   },
   "geometry": {
    "type": "LineString",
    "coordinates": [
     [
      72.84087,
      19.079414
     ],
     [
      72.840904,
      19.079727
     ],
     [
      72.840904,
      19.079775
     ],
     [
      72.840904,
      19.079811
     ],
     [
      72.840906,
      19.080014
     ],
     [
      72.84091,
      19.080166
     ],
     [
      72.840918,
      19.080276
     ],
     [
      72.840928,
      19.080379
     ],
     [
      72.840931,
      19.080454
     ],
     [
      72.840948,
      19.080531
     ],
     [
      72.840951,
      19.080585
     ],
     [
      72.840954,
      19.080692
     ],
     [
      72.840829,
      19.0807
     ],
     [
      72.840863,
      19.080919
     ],
     [
      72.840883,
      19.081062
     ],
     [
      72.840911,
      19.081156
     ],
     [
      72.840939,
      19.081244
     ],
     [
      72.840956,
      19.081357
     ],
     [
      72.840957,
      19.081513
     ],
     [
      72.840938,
      19.081584
     ],
     [
      72.840907,
      19.081632
     ],
     [
      72.840769,
      19.081737
     ],
     [
      72.840607,
      19.081841
     ]
    ]
   }
  },
  {
   "type": "Feature",
   "properties": {
    "id": "milan-sub",
    "name": "Milan Subway (rail underpass)",
    "bowl": 1.6,
    "drain_id": "MS-D4",
    "subscribers": 95
   },
   "geometry": {
    "type": "LineString",
    "coordinates": [
     [
      72.8409,
      19.0789
     ],
     [
      72.8417,
      19.079
     ],
     [
      72.8425,
      19.0792
     ],
     [
      72.8433,
      19.0793
     ],
     [
      72.844,
      19.0794
     ]
    ]
   }
  },
  {
   "type": "Feature",
   "properties": {
    "id": "nehru-01",
    "name": "Nehru Rd · Vile Parle (E) approach",
    "bowl": 1.1,
    "drain_id": "MS-D5",
    "subscribers": 85
   },
   "geometry": {
    "type": "LineString",
    "coordinates": [
     [
      72.845112,
      19.079806
     ],
     [
      72.845732,
      19.079604
     ],
     [
      72.845732,
      19.079882
     ],
     [
      72.845733,
      19.080217
     ],
     [
      72.845733,
      19.080432
     ],
     [
      72.846426,
      19.080382
     ],
     [
      72.846441,
      19.080498
     ],
     [
      72.846684,
      19.080472
     ],
     [
      72.847057,
      19.080428
     ],
     [
      72.84752,
      19.080418
     ],
     [
      72.847933,
      19.080375
     ],
     [
      72.849138,
      19.080287
     ],
     [
      72.849884,
      19.080233
     ],
     [
      72.849706,
      19.080499
     ],
     [
      72.849695,
      19.080611
     ],
     [
      72.849676,
      19.080852
     ],
     [
      72.849663,
      19.080905
     ],
     [
      72.84964,
      19.080947
     ],
     [
      72.849585,
      19.080988
     ],
     [
      72.849535,
      19.081025
     ],
     [
      72.84927,
      19.081221
     ],
     [
      72.849065,
      19.081372
     ],
     [
      72.84902,
      19.081447
     ],
     [
      72.849006,
      19.08151
     ],
     [
      72.849005,
      19.081535
     ],
     [
      72.849072,
      19.081878
     ],
     [
      72.8491,
      19.082186
     ],
     [
      72.849098,
      19.082214
     ],
     [
      72.849095,
      19.082255
     ],
     [
      72.849068,
      19.082345
     ],
     [
      72.849121,
      19.082546
     ],
     [
      72.8491,
      19.082903
     ],
     [
      72.849162,
      19.083081
     ],
     [
      72.849143,
      19.083492
     ],
     [
      72.84907,
      19.083978
     ]
    ]
   }
  },
  {
   "type": "Feature",
   "properties": {
    "id": "linking-01",
    "name": "Linking Rd · Khar stretch",
    "bowl": 0.8,
    "drain_id": "MS-D3",
    "subscribers": 70
   },
   "geometry": {
    "type": "LineString",
    "coordinates": [
     [
      72.833936,
      19.070312
     ],
     [
      72.834042,
      19.070787
     ],
     [
      72.834092,
      19.071331
     ],
     [
      72.834101,
      19.071534
     ],
     [
      72.834099,
      19.071703
     ],
     [
      72.834142,
      19.072961
     ],
     [
      72.834193,
      19.074142
     ]
    ]
   }
  },
  {
   "type": "Feature",
   "properties": {
    "id": "station-scz",
    "name": "Santacruz Stn Rd (W)",
    "bowl": 1.0,
    "drain_id": "MS-D2",
    "subscribers": 120
   },
   "geometry": {
    "type": "LineString",
    "coordinates": [
     [
      72.840607,
      19.081841
     ],
     [
      72.840769,
      19.081737
     ],
     [
      72.840907,
      19.081632
     ],
     [
      72.840938,
      19.081584
     ],
     [
      72.840957,
      19.081513
     ],
     [
      72.840956,
      19.081357
     ],
     [
      72.840939,
      19.081244
     ],
     [
      72.840911,
      19.081156
     ],
     [
      72.840883,
      19.081062
     ],
     [
      72.840863,
      19.080919
     ],
     [
      72.840829,
      19.0807
     ],
     [
      72.840606,
      19.080728
     ],
     [
      72.840534,
      19.080687
     ],
     [
      72.840213,
      19.080725
     ],
     [
      72.840012,
      19.080751
     ],
     [
      72.839497,
      19.080815
     ],
     [
      72.839284,
      19.080841
     ],
     [
      72.838525,
      19.080939
     ]
    ]
   }
  },
  {
   "type": "Feature",
   "properties": {
    "id": "juhu-lane",
    "name": "Juhu Lane · Andheri (W) edge",
    "bowl": 0.9,
    "drain_id": "MS-D6",
    "subscribers": 60
   },
   "geometry": {
    "type": "LineString",
    "coordinates": [
     [
      72.838158,
      19.090072
     ],
     [
      72.838275,
      19.090056
     ],
     [
      72.838347,
      19.090054
     ],
     [
      72.838334,
      19.089728
     ],
     [
      72.838329,
      19.089648
     ],
     [
      72.838309,
      19.089278
     ],
     [
      72.838412,
      19.089276
     ],
     [
      72.83874,
      19.089267
     ],
     [
      72.838757,
      19.08926
     ],
     [
      72.838766,
      19.089249
     ],
     [
      72.83877,
      19.089235
     ],
     [
      72.838769,
      19.08921
     ],
     [
      72.839101,
      19.089206
     ],
     [
      72.839114,
      19.089199
     ],
     [
      72.839133,
      19.089175
     ],
     [
      72.839154,
      19.089153
     ],
     [
      72.839178,
      19.089143
     ],
     [
      72.839216,
      19.089135
     ],
     [
      72.83934,
      19.089102
     ],
     [
      72.839359,
      19.089084
     ],
     [
      72.839367,
      19.089056
     ],
     [
      72.839359,
      19.08873
     ],
     [
      72.839354,
      19.088516
     ],
     [
      72.839353,
      19.088484
     ],
     [
      72.839443,
      19.088485
     ],
     [
      72.839958,
      19.088517
     ],
     [
      72.841391,
      19.088111
     ],
     [
      72.841345,
      19.087806
     ],
     [
      72.84132,
      19.087678
     ],
     [
      72.841232,
      19.087226
     ],
     [
      72.841191,
      19.087053
     ],
     [
      72.840873,
      19.086223
     ]
    ]
   }
  },
  {
   "type": "Feature",
   "properties": {
    "id": "dn-nagar",
    "name": "D.N. Nagar link",
    "bowl": 0.8,
    "drain_id": "MS-D6",
    "subscribers": 55
   },
   "geometry": {
    "type": "LineString",
    "coordinates": [
     [
      72.8412,
      19.0862
     ],
     [
      72.8417,
      19.0856
     ],
     [
      72.8422,
      19.085
     ],
     [
      72.8425,
      19.0845
     ]
    ]
   }
  }
 ]
}