{
 "type": "FeatureCollection",
 "name": "Thane · Stn-Teen Hath Naka (TMC)",
 "features": [
  {
   "type": "Feature",
   "properties": {
    "id": "gokhale",
    "name": "Gokhale Rd · Stn (W) → Talao Pali",
    "bowl": 1.2,
    "drain_id": "TH-D1",
    "subscribers": 150
   },
   "geometry": {
    "type": "LineString",
    "coordinates": [
     [
      72.974301,
      19.18626
     ],
     [
      72.974373,
      19.186329
     ],
     [
      72.974423,
      19.186505
     ],
     [
      72.974452,
      19.186658
     ],
     [
      72.974457,
      19.18674
     ],
     [
      72.9744,
      19.186753
     ],
     [
      72.974101,
      19.186826
     ],
     [
      72.973996,
      19.186829
     ],
     [
      72.973973,
      19.186831
     ],
     [
      72.973831,
      19.186834
     ],
     [
      72.973793,
      19.186836
     ],
     [
      72.973524,
      19.186844
     ],
     [
      72.973089,
      19.186993
     ],
     [
      72.973042,
      19.187035
     ],
     [
      72.972966,
      19.187102
     ],
     [
      72.972831,
      19.18749
     ],
     [
      72.973018,
      19.187629
     ],
     [
      72.973051,
      19.187668
     ],
     [
      72.973079,
      19.187722
     ],
     [
      72.973085,
      19.187764
     ],
     [
      72.973082,
      19.187811
     ],
     [
      72.972502,
      19.187788
     ],
     [
      72.972426,
      19.188628
     ],
     [
      72.972415,
      19.188754
     ],
     [
      72.972386,
      19.189073
     ],
     [
      72.971976,
      19.189143
     ],
     [
      72.971695,
      19.189208
     ],
     [
      72.971617,
      19.189335
     ],
     [
      72.971438,
      19.18973
     ],
     [
      72.970828,
      19.189792
     ],
     [
      72.97043,
      19.189833
     ],
     [
      72.970434,
      19.188498
     ]
    ]
   }
  },
  {
   "type": "Feature",
   "properties": {
    "id": "talao",
    "name": "Talao Pali edge",
    "bowl": 1.0,
    "drain_id": "TH-D1",
    "subscribers": 90
   },
   "geometry": {
    "type": "LineString",
    "coordinates": [
     [
      72.970434,
      19.188498
     ],
     [
      72.97043,
      19.189833
     ],
     [
      72.969862,
      19.189908
     ],
     [
      72.969323,
      19.189944
     ],
     [
      72.969221,
      19.189951
     ],
     [
      72.968982,
      19.189971
     ],
     [
      72.968932,
      19.189975
     ],
     [
      72.967796,
      19.190051
     ],
     [
      72.967718,
      19.190055
     ],
     [
      72.967769,
      19.190475
     ],
     [
      72.96781,
      19.190811
     ]
    ]
   }
  },
  {
   "type": "Feature",
   "properties": {
    "id": "teen-hath",
    "name": "Teen Hath Naka approach (LBS)",
    "bowl": 1.4,
    "drain_id": "TH-D2",
    "subscribers": 170
   },
   "geometry": {
    "type": "LineString",
    "coordinates": [
     [
      72.966581,
      19.183091
     ],
     [
      72.966244,
      19.182522
     ],
     [
      72.966215,
      19.182482
     ],
     [
      72.966185,
      19.18243
     ],
     [
      72.966162,
      19.182376
     ],
     [
      72.966125,
      19.18242
     ],
     [
      72.965996,
      19.182704
     ],
     [
      72.965791,
      19.183316
     ],
     [
      72.965549,
      19.183978
     ],
     [
      72.965416,
      19.184072
     ],
     [
      72.965183,
      19.184809
     ],
     [
      72.965148,
      19.184915
     ],
     [
      72.9651,
      19.18504
     ],
     [
      72.964791,
      19.185928
     ]
    ]
   }
  },
  {
   "type": "Feature",
   "properties": {
    "id": "stn-e",
    "name": "Thane Stn (E) · Kopri approach",
    "bowl": 1.3,
    "drain_id": "TH-D3",
    "subscribers": 120
   },
   "geometry": {
    "type": "LineString",
    "coordinates": [
     [
      72.977242,
      19.184574
     ],
     [
      72.977016,
      19.184442
     ],
     [
      72.977036,
      19.184399
     ],
     [
      72.977075,
      19.184359
     ],
     [
      72.977073,
      19.184271
     ],
     [
      72.977134,
      19.184239
     ],
     [
      72.977637,
      19.183754
     ],
     [
      72.978009,
      19.183487
     ],
     [
      72.978097,
      19.183428
     ],
     [
      72.97822,
      19.183344
     ],
     [
      72.978594,
      19.18309
     ],
     [
      72.979315,
      19.182744
     ],
     [
      72.979241,
      19.18261
     ]
    ]
   }
  },
  {
   "type": "Feature",
   "properties": {
    "id": "ram-maruti",
    "name": "Ram Maruti Rd",
    "bowl": 0.9,
    "drain_id": "TH-D4",
    "subscribers": 80
   },
   "geometry": {
    "type": "LineString",
    "coordinates": [
     [
      72.970434,
      19.188498
     ],
     [
      72.97043,
      19.189833
     ],
     [
      72.970828,
      19.189792
     ],
     [
      72.971438,
      19.18973
     ],
     [
      72.971617,
      19.189335
     ],
     [
      72.971695,
      19.189208
     ],
     [
      72.971626,
      19.188907
     ],
     [
      72.971611,
      19.188866
     ],
     [
      72.971598,
      19.188785
     ],
     [
      72.971467,
      19.188466
     ],
     [
      72.97139,
      19.188277
     ],
     [
      72.971158,
      19.187369
     ],
     [
      72.971137,
      19.187286
     ],
     [
      72.970964,
      19.186767
     ],
     [
      72.970848,
      19.186422
     ],
     [
      72.970934,
      19.186467
     ],
     [
      72.971143,
      19.186565
     ],
     [
      72.97139,
      19.186028
     ],
     [
      72.971408,
      19.185967
     ],
     [
      72.971538,
      19.185513
     ],
     [
      72.971558,
      19.185445
     ],
     [
      72.972582,
      19.185788
     ],
     [
      72.972698,
      19.185736
     ],
     [
      72.972832,
      19.185772
     ],
     [
      72.972907,
      19.185759
     ],
     [
      72.972977,
      19.185782
     ],
     [
      72.973196,
      19.185855
     ]
    ]
   }
  },
  {
   "type": "Feature",
   "properties": {
    "id": "castle",
    "name": "Castle Mill stretch (LBS)",
    "bowl": 1.1,
    "drain_id": "TH-D5",
    "subscribers": 100
   },
   "geometry": {
    "type": "LineString",
    "coordinates": [
     [
      72.964791,
      19.185928
     ],
     [
      72.964065,
      19.188012
     ],
     [
      72.964049,
      19.188225
     ],
     [
      72.963945,
      19.188257
     ],
     [
      72.963858,
      19.188282
     ],
     [
      72.963525,
      19.18816
     ],
     [
      72.96351,
      19.188219
     ],
     [
      72.963499,
      19.188257
     ],
     [
      72.96344,
      19.188456
     ],
     [
      72.963412,
      19.188575
     ],
     [
      72.963374,
      19.18872
     ],
     [
      72.963172,
      19.188637
     ],
     [
      72.963083,
      19.188695
     ],
     [
      72.962941,
      19.188787
     ],
     [
      72.962592,
      19.189014
     ],
     [
      72.961994,
      19.189374
     ],
     [
      72.961281,
      19.189813
     ],
     [
      72.961324,
      19.189914
     ],
     [
      72.961473,
      19.190221
     ],
     [
      72.961575,
      19.190507
     ]
    ]
   }
  }
 ]
}