{
 "type": "FeatureCollection",
 "name": "FLOODLIGHT pilot ward — Hindmata–Parel belt (road-snapped to OSM via Overpass)",
 "features": [
  {
   "type": "Feature",
   "properties": {
    "id": "amb-01",
    "name": "Dr Ambedkar Rd · Dadar TT → Khodadad Circle",
    "bowl": 0.8,
    "drain_id": "D-01",
    "subscribers": 88
   },
   "geometry": {
    "type": "LineString",
    "coordinates": [
     [
      72.84741,
      19.017656
     ],
     [
      72.84739,
      19.017567
     ],
     [
      72.847347,
      19.017478
     ],
     [
      72.847249,
      19.017359
     ],
     [
      72.847234,
      19.017337
     ],
     [
      72.84705,
      19.017081
     ],
     [
      72.847004,
      19.017018
     ],
     [
      72.846746,
      19.016673
     ],
     [
      72.846475,
      19.016314
     ],
     [
      72.846398,
      19.016207
     ],
     [
      72.846291,
      19.016062
     ],
     [
      72.846012,
      19.015685
     ]
    ]
   }
  },
  {
   "type": "Feature",
   "properties": {
    "id": "amb-02",
    "name": "Dr Ambedkar Rd · Hindmata Junction",
    "bowl": 1.5,
    "drain_id": "D-03",
    "subscribers": 240
   },
   "geometry": {
    "type": "LineString",
    "coordinates": [
     [
      72.846012,
      19.015685
     ],
     [
      72.845893,
      19.015525
     ],
     [
      72.845483,
      19.014971
     ],
     [
      72.845383,
      19.014821
     ],
     [
      72.84478,
      19.013952
     ]
    ]
   }
  },
  {
   "type": "Feature",
   "properties": {
    "id": "hindmata-mkt",
    "name": "Hindmata Cloth Market Lane",
    "bowl": 1.4,
    "drain_id": "D-03",
    "subscribers": 185
   },
   "geometry": {
    "type": "LineString",
    "coordinates": [
     [
      72.84505,
      19.0163
     ],
     [
      72.84535,
      19.01624
     ],
     [
      72.8457,
      19.01619
     ],
     [
      72.84605,
      19.01614
     ],
     [
      72.8464,
      19.0161
     ]
    ]
   }
  },
  {
   "type": "Feature",
   "properties": {
    "id": "amb-03",
    "name": "Dr Ambedkar Rd · Hindmata → Bharatmata",
    "bowl": 1.2,
    "drain_id": "D-04",
    "subscribers": 130
   },
   "geometry": {
    "type": "LineString",
    "coordinates": [
     [
      72.844315,
      19.014291
     ],
     [
      72.844578,
      19.01469
     ],
     [
      72.844685,
      19.014853
     ],
     [
      72.844901,
      19.015181
     ],
     [
      72.845383,
      19.014821
     ],
     [
      72.845553,
      19.014645
     ],
     [
      72.845403,
      19.014427
     ],
     [
      72.845002,
      19.013842
     ],
     [
      72.844573,
      19.013218
     ],
     [
      72.844523,
      19.013145
     ],
     [
      72.844247,
      19.01283
     ],
     [
      72.844051,
      19.012534
     ],
     [
      72.84367,
      19.011961
     ]
    ]
   }
  },
  {
   "type": "Feature",
   "properties": {
    "id": "amb-04",
    "name": "Dr Ambedkar Rd · Bharatmata → Parel TT",
    "bowl": 0.9,
    "drain_id": "D-05",
    "subscribers": 74
   },
   "geometry": {
    "type": "LineString",
    "coordinates": [
     [
      72.84367,
      19.011961
     ],
     [
      72.843054,
      19.011112
     ],
     [
      72.842969,
      19.010985
     ],
     [
      72.842951,
      19.010828
     ],
     [
      72.842799,
      19.010597
     ],
     [
      72.842617,
      19.010327
     ],
     [
      72.842411,
      19.010016
     ],
     [
      72.842106,
      19.009528
     ],
     [
      72.84206,
      19.009454
     ],
     [
      72.842021,
      19.009387
     ],
     [
      72.841825,
      19.009072
     ],
     [
      72.841814,
      19.009046
     ],
     [
      72.841694,
      19.008776
     ]
    ]
   }
  },
  {
   "type": "Feature",
   "properties": {
    "id": "parel-tank-rd",
    "name": "Parel Tank Rd (east of Hindmata)",
    "bowl": 1.1,
    "drain_id": "D-07",
    "subscribers": 96
   },
   "geometry": {
    "type": "LineString",
    "coordinates": [
     [
      72.84478,
      19.013952
     ],
     [
      72.845383,
      19.014821
     ],
     [
      72.845553,
      19.014645
     ],
     [
      72.845905,
      19.014388
     ],
     [
      72.846006,
      19.014315
     ],
     [
      72.846147,
      19.014212
     ],
     [
      72.846103,
      19.014147
     ],
     [
      72.846523,
      19.013883
     ],
     [
      72.846532,
      19.013871
     ],
     [
      72.846534,
      19.013842
     ],
     [
      72.84654,
      19.01382
     ],
     [
      72.846632,
      19.013763
     ],
     [
      72.84674,
      19.013679
     ],
     [
      72.846765,
      19.013649
     ],
     [
      72.846786,
      19.013612
     ],
     [
      72.846801,
      19.01358
     ],
     [
      72.846804,
      19.013563
     ],
     [
      72.846795,
      19.013541
     ],
     [
      72.846716,
      19.013413
     ],
     [
      72.846634,
      19.013454
     ]
    ]
   }
  },
  {
   "type": "Feature",
   "properties": {
    "id": "tilak-01",
    "name": "Tilak Bridge approach (Dadar)",
    "bowl": 0.7,
    "drain_id": "D-02",
    "subscribers": 52
   },
   "geometry": {
    "type": "LineString",
    "coordinates": [
     [
      72.8449,
      19.0187
     ],
     [
      72.8447,
      19.01876
     ],
     [
      72.8444,
      19.01883
     ],
     [
      72.84405,
      19.0189
     ],
     [
      72.8437,
      19.01896
     ]
    ]
   }
  },
  {
   "type": "Feature",
   "properties": {
    "id": "dadar-st",
    "name": "Dadar Stn (E) · Dadasaheb Phalke Rd",
    "bowl": 1.0,
    "drain_id": "D-01",
    "subscribers": 120
   },
   "geometry": {
    "type": "LineString",
    "coordinates": [
     [
      72.845994,
      19.018001
     ],
     [
      72.845748,
      19.018157
     ],
     [
      72.845721,
      19.018174
     ],
     [
      72.845687,
      19.018122
     ],
     [
      72.845652,
      19.01807
     ],
     [
      72.845308,
      19.018296
     ],
     [
      72.844832,
      19.018608
     ],
     [
      72.845254,
      19.019202
     ],
     [
      72.845328,
      19.01923
     ],
     [
      72.845516,
      19.019487
     ],
     [
      72.845523,
      19.019577
     ],
     [
      72.84564,
      19.019748
     ],
     [
      72.846286,
      19.019337
     ],
     [
      72.846305,
      19.019362
     ],
     [
      72.846311,
      19.019369
     ],
     [
      72.846379,
      19.019459
     ]
    ]
   }
  },
  {
   "type": "Feature",
   "properties": {
    "id": "currey-01",
    "name": "Currey Rd stretch (Bharatmata west)",
    "bowl": 1.0,
    "drain_id": "D-06",
    "subscribers": 61
   },
   "geometry": {
    "type": "LineString",
    "coordinates": [
     [
      72.84367,
      19.011961
     ],
     [
      72.843054,
      19.011112
     ],
     [
      72.842969,
      19.010985
     ],
     [
      72.842951,
      19.010828
     ],
     [
      72.842799,
      19.010597
     ],
     [
      72.842617,
      19.010327
     ],
     [
      72.842411,
      19.010016
     ],
     [
      72.842106,
      19.009528
     ],
     [
      72.84206,
      19.009454
     ],
     [
      72.841855,
      19.009555
     ],
     [
      72.841773,
      19.009587
     ],
     [
      72.841634,
      19.009648
     ],
     [
      72.841649,
      19.009738
     ],
     [
      72.841875,
      19.010788
     ]
    ]
   }
  },
  {
   "type": "Feature",
   "properties": {
    "id": "sayani-01",
    "name": "Sayani Rd · Elphinstone → Parel TT",
    "bowl": 0.8,
    "drain_id": "D-08",
    "subscribers": 45
   },
   "geometry": {
    "type": "LineString",
    "coordinates": [
     [
      72.837147,
      19.007858
     ],
     [
      72.836787,
      19.007299
     ],
     [
      72.836788,
      19.007256
     ],
     [
      72.837511,
      19.006813
     ],
     [
      72.837669,
      19.006716
     ],
     [
      72.838014,
      19.006504
     ],
     [
      72.838126,
      19.006317
     ],
     [
      72.839114,
      19.005742
     ],
     [
      72.839617,
      19.005464
     ],
     [
      72.839814,
      19.00533
     ],
     [
      72.83993,
      19.005442
     ],
     [
      72.839951,
      19.005467
     ],
     [
      72.840126,
      19.005661
     ],
     [
      72.84033,
      19.005949
     ],
     [
      72.840517,
      19.006179
     ],
     [
      72.840589,
      19.006313
     ],
     [
      72.840733,
      19.006552
     ],
     [
      72.840935,
      19.006878
     ],
     [
      72.84105,
      19.007115
     ],
     [
      72.841139,
      19.007299
     ],
     [
      72.841235,
      19.007495
     ],
     [
      72.841353,
      19.007871
     ],
     [
      72.841461,
      19.008177
     ],
     [
      72.841505,
      19.008302
     ],
     [
      72.841599,
      19.008543
     ],
     [
      72.841656,
      19.008692
     ],
     [
      72.841694,
      19.008776
     ],
     [
      72.841814,
      19.009046
     ],
     [
      72.842612,
      19.008722
     ]
    ]
   }
  },
  {
   "type": "Feature",
   "properties": {
    "id": "parel-village",
    "name": "Parel Village Lane",
    "bowl": 1.2,
    "drain_id": "D-05",
    "subscribers": 66
   },
   "geometry": {
    "type": "LineString",
    "coordinates": [
     [
      72.842612,
      19.008722
     ],
     [
      72.842657,
      19.008707
     ],
     [
      72.842696,
      19.008698
     ],
     [
      72.842824,
      19.008708
     ],
     [
      72.842992,
      19.008947
     ],
     [
      72.843632,
      19.008552
     ],
     [
      72.844382,
      19.007928
     ],
     [
      72.844612,
      19.00761
     ]
    ]
   }
  },
  {
   "type": "Feature",
   "properties": {
    "id": "naigaon-x",
    "name": "Naigaon Cross Rd",
    "bowl": 0.8,
    "drain_id": "D-09",
    "subscribers": 38
   },
   "geometry": {
    "type": "LineString",
    "coordinates": [
     [
      72.846699,
      19.016179
     ],
     [
      72.847267,
      19.016872
     ],
     [
      72.847589,
      19.017303
     ],
     [
      72.847645,
      19.017357
     ],
     [
      72.847743,
      19.017402
     ],
     [
      72.847879,
      19.017406
     ],
     [
      72.848006,
      19.017451
     ],
     [
      72.848111,
      19.017533
     ],
     [
      72.848393,
      19.01743
     ],
     [
      72.848456,
      19.017392
     ],
     [
      72.848752,
      19.017214
     ],
     [
      72.848774,
      19.017198
     ],
     [
      72.848806,
      19.017177
     ],
     [
      72.848944,
      19.017319
     ]
    ]
   }
  }
 ]
}